{"type": "FeatureCollection", "features": [ {"type": "Feature", "properties": {"norad_id": 39122, "name": "EUTELSAT 117 WEST A", "group": "eutelsat", "lat": -0.03808406101732513, "lon": -166.13511502633204, "alt_km": 35779.46754077469, "timestamp": "2025-12-04T15:47:53.767396+00:00", "meta": {"OBJECT_NAME": "EUTELSAT 117 WEST A", "OBJECT_ID": "2013-012A", "EPOCH": "2025-12-04T05:41:31.309152", "MEAN_MOTION": 1.00272356, "ECCENTRICITY": 0.00032035, "INCLINATION": 0.0197, "RA_OF_ASC_NODE": 312.7527, "ARG_OF_PERICENTER": 302.8271, "MEAN_ANOMALY": 146.3287, "EPHEMERIS_TYPE": 0, "CLASSIFICATION_TYPE": "U", "NORAD_CAT_ID": 39122, "ELEMENT_SET_NO": 999, "REV_AT_EPOCH": 4647, "BSTAR": 0, "MEAN_MOTION_DOT": 3e-08, "MEAN_MOTION_DDOT": 0}, "tle": {"line1": "1 39122U 13012A   25338.23716793  .00000003  00000+0  00000+0 0  9994", "line2": "2 39122   0.0197 312.7527 0003203 302.8271 146.3287  1.00272356 46472"}}, "geometry": {"type": "Point", "coordinates": [-166.13511502633204, -0.03808406101732513]}}, {"type": "Feature", "properties": {"norad_id": 39163, "name": "EUTELSAT 7B", "group": "eutelsat", "lat": -0.0518955856055883, "lon": -42.319452865422065, "alt_km": 35768.87911704948, "timestamp": "2025-12-04T15:47:53.767408+00:00", "meta": {"OBJECT_NAME": "EUTELSAT 7B", "OBJECT_ID": "2013-022A", "EPOCH": "2025-12-04T05:11:56.717952", "MEAN_MOTION": 1.00269649, "ECCENTRICITY": 0.00042596, "INCLINATION": 0.068, "RA_OF_ASC_NODE": 1.8831, "ARG_OF_PERICENTER": 309.1609, "MEAN_ANOMALY": 207.2315, "EPHEMERIS_TYPE": 0, "CLASSIFICATION_TYPE": "U", "NORAD_CAT_ID": 39163, "ELEMENT_SET_NO": 999, "REV_AT_EPOCH": 4600, "BSTAR": 0, "MEAN_MOTION_DOT": 6.4e-07, "MEAN_MOTION_DDOT": 0}, "tle": {"line1": "1 39163U 13022A   25338.21662868  .00000064  00000+0  00000+0 0  9998", "line2": "2 39163   0.0680   1.8831 0004259 309.1609 207.2315  1.00269649 46004"}}, "geometry": {"type": "Point", "coordinates": [-42.319452865422065, -0.0518955856055883]}}, {"type": "Feature", "properties": {"norad_id": 39612, "name": "EXPRESS-AT1", "group": "eutelsat", "lat": 0.03404359662732955, "lon": 6.6795709027046835, "alt_km": 35787.21680325876, "timestamp": "2025-12-04T15:47:53.767420+00:00", "meta": {"OBJECT_NAME": "EXPRESS-AT1", "OBJECT_ID": "2014-010A", "EPOCH": "2025-12-04T05:25:55.379424", "MEAN_MOTION": 1.00270117, "ECCENTRICITY": 1.861e-05, "INCLINATION": 0.0171, "RA_OF_ASC_NODE": 304.1017, "ARG_OF_PERICENTER": 217.9128, "MEAN_ANOMALY": 48.7701, "EPHEMERIS_TYPE": 0, "CLASSIFICATION_TYPE": "U", "NORAD_CAT_ID": 39612, "ELEMENT_SET_NO": 999, "REV_AT_EPOCH": 4286, "BSTAR": 0, "MEAN_MOTION_DOT": 9.5e-07, "MEAN_MOTION_DDOT": 0}, "tle": {"line1": "1 39612U 14010A   25338.22633541  .00000095  00000+0  00000+0 0  9996", "line2": "2 39612   0.0171 304.1017 0000186 217.9128  48.7701  1.00270117 42869"}}, "geometry": {"type": "Point", "coordinates": [6.6795709027046835, 0.03404359662732955]}}, {"type": "Feature", "properties": {"norad_id": 39613, "name": "EXPRESS-AT2", "group": "eutelsat", "lat": 0.04162606286703191, "lon": 90.5334471812474, "alt_km": 35792.3861792499, "timestamp": "2025-12-04T15:47:53.767433+00:00", "meta": {"OBJECT_NAME": "EXPRESS-AT2", "OBJECT_ID": "2014-010B", "EPOCH": "2025-12-04T07:32:36.708000", "MEAN_MOTION": 1.00270269, "ECCENTRICITY": 0.00015116, "INCLINATION": 0.0214, "RA_OF_ASC_NODE": 337.5162, "ARG_OF_PERICENTER": 316.7864, "MEAN_ANOMALY": 32.0865, "EPHEMERIS_TYPE": 0, "CLASSIFICATION_TYPE": "U", "NORAD_CAT_ID": 39613, "ELEMENT_SET_NO": 999, "REV_AT_EPOCH": 4254, "BSTAR": 0, "MEAN_MOTION_DOT": 0, "MEAN_MOTION_DDOT": 0}, "tle": {"line1": "1 39613U 14010B   25338.31431375  .00000000  00000+0  00000+0 0  9994", "line2": "2 39613   0.0214 337.5162 0001511 316.7864  32.0865  1.00270269 42547"}}, "geometry": {"type": "Point", "coordinates": [90.5334471812474, 0.04162606286703191]}}, {"type": "Feature", "properties": {"norad_id": 39773, "name": "EUTELSAT 3B", "group": "eutelsat", "lat": -0.05494011285801735, "lon": -46.16902534324684, "alt_km": 35784.41621335578, "timestamp": "2025-12-04T15:47:53.767445+00:00", "meta": {"OBJECT_NAME": "EUTELSAT 3B", "OBJECT_ID": "2014-030A", "EPOCH": "2025-12-04T05:10:49.325088", "MEAN_MOTION": 1.00270965, "ECCENTRICITY": 0.00047767, "INCLINATION": 0.0636, "RA_OF_ASC_NODE": 4.0806, "ARG_OF_PERICENTER": 224.8213, "MEAN_ANOMALY": 285.1915, "EPHEMERIS_TYPE": 0, "CLASSIFICATION_TYPE": "U", "NORAD_CAT_ID": 39773, "ELEMENT_SET_NO": 999, "REV_AT_EPOCH": 4211, "BSTAR": 0, "MEAN_MOTION_DOT": 3.6e-07, "MEAN_MOTION_DDOT": 0}, "tle": {"line1": "1 39773U 14030A   25338.21584867  .00000036  00000+0  00000+0 0  9996", "line2": "2 39773   0.0636   4.0806 0004776 224.8213 285.1915  1.00270965 42119"}}, "geometry": {"type": "Point", "coordinates": [-46.16902534324684, -0.05494011285801735]}}, {"type": "Feature", "properties": {"norad_id": 40425, "name": "EUTELSAT 115 WEST B", "group": "eutelsat", "lat": 0.01072196504217374, "lon": -164.1936277696918, "alt_km": 35787.11697890237, "timestamp": "2025-12-04T15:47:53.767457+00:00", "meta": {"OBJECT_NAME": "EUTELSAT 115 WEST B", "OBJECT_ID": "2015-010B", "EPOCH": "2025-12-04T06:19:51.176928", "MEAN_MOTION": 1.0027368, "ECCENTRICITY": 4.932e-05, "INCLINATION": 0.0127, "RA_OF_ASC_NODE": 145.1164, "ARG_OF_PERICENTER": 271.4317, "MEAN_ANOMALY": 356.8728, "EPHEMERIS_TYPE": 0, "CLASSIFICATION_TYPE": "U", "NORAD_CAT_ID": 40425, "ELEMENT_SET_NO": 999, "REV_AT_EPOCH": 3943, "BSTAR": 0, "MEAN_MOTION_DOT": -1e-07, "MEAN_MOTION_DDOT": 0}, "tle": {"line1": "1 40425U 15010B   25338.26378677 -.00000010  00000+0  00000+0 0  9999", "line2": "2 40425   0.0127 145.1164 0000493 271.4317 356.8728  1.00273680 39435"}}, "geometry": {"type": "Point", "coordinates": [-164.1936277696918, 0.01072196504217374]}}, {"type": "Feature", "properties": {"norad_id": 40875, "name": "EUTELSAT 8 WEST B", "group": "eutelsat", "lat": -0.05793539412305623, "lon": -57.27454411992489, "alt_km": 35774.21109593665, "timestamp": "2025-12-04T15:47:53.767469+00:00", "meta": {"OBJECT_NAME": "EUTELSAT 8 WEST B", "OBJECT_ID": "2015-039B", "EPOCH": "2025-12-04T05:07:42.123936", "MEAN_MOTION": 1.00271624, "ECCENTRICITY": 0.00041346, "INCLINATION": 0.0653, "RA_OF_ASC_NODE": 348.9343, "ARG_OF_PERICENTER": 266.6738, "MEAN_ANOMALY": 246.6167, "EPHEMERIS_TYPE": 0, "CLASSIFICATION_TYPE": "U", "NORAD_CAT_ID": 40875, "ELEMENT_SET_NO": 999, "REV_AT_EPOCH": 3770, "BSTAR": 0, "MEAN_MOTION_DOT": -5e-07, "MEAN_MOTION_DDOT": 0}, "tle": {"line1": "1 40875U 15039B   25338.21368199 -.00000050  00000+0  00000+0 0  9996", "line2": "2 40875   0.0653 348.9343 0004134 266.6738 246.6167  1.00271624 37706"}}, "geometry": {"type": "Point", "coordinates": [-57.27454411992489, -0.05793539412305623]}}, {"type": "Feature", "properties": {"norad_id": 41310, "name": "EUTELSAT 9B", "group": "eutelsat", "lat": -0.05908394119972278, "lon": -40.28440655881899, "alt_km": 35773.899516777296, "timestamp": "2025-12-04T15:47:53.767481+00:00", "meta": {"OBJECT_NAME": "EUTELSAT 9B", "OBJECT_ID": "2016-005A", "EPOCH": "2025-12-04T05:12:26.670240", "MEAN_MOTION": 1.00271535, "ECCENTRICITY": 0.00049541, "INCLINATION": 0.0679, "RA_OF_ASC_NODE": 75.3059, "ARG_OF_PERICENTER": 190.1546, "MEAN_ANOMALY": 254.9316, "EPHEMERIS_TYPE": 0, "CLASSIFICATION_TYPE": "U", "NORAD_CAT_ID": 41310, "ELEMENT_SET_NO": 999, "REV_AT_EPOCH": 3616, "BSTAR": 0, "MEAN_MOTION_DOT": 7.8e-07, "MEAN_MOTION_DDOT": 0}, "tle": {"line1": "1 41310U 16005A   25338.21697535  .00000078  00000+0  00000+0 0  9993", "line2": "2 41310   0.0679  75.3059 0004954 190.1546 254.9316  1.00271535 36160"}}, "geometry": {"type": "Point", "coordinates": [-40.28440655881899, -0.05908394119972278]}}, {"type": "Feature", "properties": {"norad_id": 41382, "name": "EUTELSAT 65 WEST A", "group": "eutelsat", "lat": -0.07367229026976829, "lon": -114.52979459133896, "alt_km": 35774.982288354586, "timestamp": "2025-12-04T15:47:53.767494+00:00", "meta": {"OBJECT_NAME": "EUTELSAT 65 WEST A", "OBJECT_ID": "2016-014A", "EPOCH": "2025-12-04T06:34:04.814976", "MEAN_MOTION": 1.00270333, "ECCENTRICITY": 0.00028281, "INCLINATION": 0.0496, "RA_OF_ASC_NODE": 347.1995, "ARG_OF_PERICENTER": 273.664, "MEAN_ANOMALY": 205.8051, "EPHEMERIS_TYPE": 0, "CLASSIFICATION_TYPE": "U", "NORAD_CAT_ID": 41382, "ELEMENT_SET_NO": 999, "REV_AT_EPOCH": 3558, "BSTAR": 0, "MEAN_MOTION_DOT": -2.61e-06, "MEAN_MOTION_DDOT": 0}, "tle": {"line1": "1 41382U 16014A   25338.27366684 -.00000261  00000+0  00000+0 0  9991", "line2": "2 41382   0.0496 347.1995 0002828 273.6640 205.8051  1.00270333 35586"}}, "geometry": {"type": "Point", "coordinates": [-114.52979459133896, -0.07367229026976829]}}, {"type": "Feature", "properties": {"norad_id": 41589, "name": "EUTELSAT 117 WEST B", "group": "eutelsat", "lat": 0.01369719386662606, "lon": -166.31838050732884, "alt_km": 35786.88913792651, "timestamp": "2025-12-04T15:47:53.767509+00:00", "meta": {"OBJECT_NAME": "EUTELSAT 117 WEST B", "OBJECT_ID": "2016-038B", "EPOCH": "2025-12-04T02:38:16.325088", "MEAN_MOTION": 1.0026993, "ECCENTRICITY": 1.619e-05, "INCLINATION": 0.0084, "RA_OF_ASC_NODE": 141.8858, "ARG_OF_PERICENTER": 294.8653, "MEAN_ANOMALY": 279.0065, "EPHEMERIS_TYPE": 0, "CLASSIFICATION_TYPE": "U", "NORAD_CAT_ID": 41589, "ELEMENT_SET_NO": 999, "REV_AT_EPOCH": 3470, "BSTAR": 0, "MEAN_MOTION_DOT": 5e-08, "MEAN_MOTION_DDOT": 0}, "tle": {"line1": "1 41589U 16038B   25338.10991117  .00000005  00000+0  00000+0 0  9998", "line2": "2 41589   0.0084 141.8858 0000161 294.8653 279.0065  1.00269930 34704"}}, "geometry": {"type": "Point", "coordinates": [-166.31838050732884, 0.01369719386662606]}}]}